KKS-1 (KISEKI)          
1 33499U 09002H   26153.81866356  .00001612  00000+0  20479-3 0  9993
2 33499  98.1195  76.0333 0007545 348.0388  12.0644 14.83083746934063
SWISSCUBE               
1 35932U 09051B   26153.73245469  .00001179  00000+0  24257-3 0  9994
2 35932  98.4046  61.3687 0005401 257.1723 102.8874 14.62451597887044
BEESAT-1                
1 35933U 09051C   26153.73439069  .00000990  00000+0  20873-3 0  9996
2 35933  98.3974  61.0362 0003921 275.9027  84.1727 14.61695097887077
ITUPSAT1                
1 35935U 09051E   26153.71263720  .00000979  00000+0  21216-3 0  9994
2 35935  98.4058  60.2213 0006196 288.4412  71.6113 14.60417609886623
XIWANG-1 (HOPE-1)       
1 36122U 09072B   26153.80404964 -.00000452  00000+0 -10665-2 0  9996
2 36122 100.4024 107.8665 0006824 267.8347  92.1984 13.16437178791110
O/OREOS (USA 219)       
1 37224U 10062C   26153.32857010  .00002716  00000+0  26223-3 0  9993
2 37224  71.9699 113.9939 0012362  95.7021 264.5559 14.93674573114421
JUGNU                   
1 37839U 11058B   26152.07859182  .00000456  00000+0  98509-4 0  9990
2 37839  19.9618  46.2876 0018499 258.1927 242.1590 14.13771859756742
SRMSAT                  
1 37841U 11058D   26152.32622016  .00000395  00000+0  70452-4 0  9994
2 37841  19.9701 155.4732 0011864  30.5063  85.9028 14.11572059755572
STRAND-1                
1 39090U 13009E   26153.71388231  .00000327  00000+0  12443-3 0  9992
2 39090  98.3917 334.3050 0007389 275.2606  84.7737 14.37154196694986
ZACUBE-1 (TSHEPISOSAT)  
1 39417U 13066B   26153.14273308  .00004811  00000+0  37474-3 0  9996
2 39417  97.8108 115.3981 0039923 301.0128  58.7178 15.01078568678477
GOMX-1                  
1 39430U 13066Q   26153.81792420  .00002596  00000+0  39293-3 0  9995
2 39430  97.6489 355.1876 0129884 123.2168 238.1569 14.69402084667803
CUBEBUG-2 (LO-74)       
1 39440U 13066AA  26153.52661498  .00004808  00000+0  44530-3 0  9992
2 39440  97.8903 102.4452 0059428  76.5385 284.2448 14.93633122674809
FUNCUBE-1 (AO-73)       
1 39444U 13066AE  26153.14054320  .00008394  00000+0  52350-3 0  9997
2 39444  97.8267 124.2748 0034711 254.2944 105.4454 15.09290124677397
UWE-3                   
1 39446U 13066AG  26152.44070852  .00004847  00000+0  41727-3 0  9994
2 39446  97.8706 108.4112 0049715  14.4949 345.7684 14.96889154675223
UNISAT-6                
1 40012U 14033C   26153.34127987  .00003204  00000+0  34688-3 0  9996
2 40012  97.7865 306.3169 0046378 116.8506 243.7463 14.88156316643953
DUCHIFAT-1              
1 40021U 14033M   26153.68224172  .00099172  00000+0  11397-2 0  9997
2 40021  98.0473 210.8393 0005095 141.7306 218.4312 15.61688703653489
QB50P1                  
1 40025U 14033R   26153.78147734  .00009500  00000+0  47014-3 0  9992
2 40025  98.0966 163.9200 0007095 275.3100  84.7322 15.18023538650846
LILACSAT-2              
1 40908U 15049K   26153.82242767  .00018970  00000+0  32861-3 0  9992
2 40908  97.4657 190.1221 0005455 314.7822  45.2985 15.50942804593528
FOX-1A (AO-85)          
1 40967U 15058D   26153.86409311  .00003346  00000+0  30338-3 0  9999
2 40967  64.7762 323.4930 0129712  62.2185 299.2007 14.90890098111437
CAS-2T & KS-1Q          
1 41847U 16066G   26153.83397811  .00001701  00000+0  24651-3 0  9999
2 41847  98.3818 229.7336 0342206 172.9288 187.6916 14.44644451502720
RADFXSAT (FOX-1B)       
1 43017U 17073E   26153.45601544  .00011170  00000+0  48710-3 0  9991
2 43017  97.4714  20.9743 0151802  20.1509 340.5626 15.12443665463161
DIWATA-2B               
1 43678U 18084H   26153.83167258  .00003448  00000+0  27940-3 0  9999
2 43678  98.1149 349.4190 0011824 218.1531 141.8855 15.00380899414069
ES'HAIL 2               
1 43700U 18090A   26153.86830674  .00000000  00000+0  00000+0 0  9999
2 43700   0.0199 350.3119 0002002 115.5759 123.8202  1.00271106 27537
FOX-1CLIFF (AO-95)      
1 43770U 18099N   26153.65690558  .00013340  00000+0  51466-3 0  9994
2 43770  97.4393 213.9599 0009472  47.7228 312.4812 15.26380169411006
ITASAT                  
1 43786U 18099AE  26153.66063485  .00007482  00000+0  36131-3 0  9997
2 43786  97.4034 205.4635 0013650  49.5745 310.6677 15.18859489410701
JY1SAT (JO-97)          
1 43803U 18099AX  26153.87000389  .00017885  00000+0  55972-3 0  9996
2 43803  97.4135 216.6595 0004372 332.8214  27.2798 15.33171132411437
UWE-4                   
1 43880U 18111E   26153.84312433  .00034156  00000+0  71901-3 0  9999
2 43880  97.5861  81.5836 0008341  34.8813 325.2980 15.45177103408561
TIANYAN 01              
1 44881U 19093C   26153.84166878  .00001508  00000+0  17619-3 0  9992
2 44881  97.7536 226.4233 0014657 129.8027 230.4482 14.86497043349283
RS-44 & BREEZE-KM R/B   
1 44909U 19096E   26153.07249663  .00000020  00000+0  31756-4 0  9992
2 44909  82.5220 349.7510 0217486 179.4465 180.6919 12.79748587300410
SALSAT                  
1 46495U 20068K   26153.23105176  .00008802  00000+0  30965-3 0  9999
2 46495  97.8847 155.3881 0009593   6.2799 353.8559 15.29565240313074
XW-3 (CAS-9)            
1 50466U 21131B   26153.82361043  .00000513  00000+0  17199-3 0  9991
2 50466  98.4978 246.2912 0005011 130.4461 229.7166 14.41343095233049
GREENCUBE (IO-117)      
1 53109U 22080E   26152.46502029 -.00000003  00000+0  00000+0 0  9996
2 53109  70.1435 303.7143 0008869 293.3663  66.6064  6.42583280 91055
UMKA 1 (RS40S)          
1 57172U 23091G   26153.81536560  .00006372  00000+0  29288-3 0  9997
2 57172  97.5053 212.5691 0013372 163.2528 196.9151 15.20640463161823
CUBESX-HSE 3 (RS42S)    
1 57178U 23091N   26153.86054397  .00014853  00000+0  49970-3 0  9994
2 57178  97.5095 219.2707 0012013 139.1037 221.1107 15.30827680162232
MONITOR-3 (RS58S)       
1 57180U 23091Q   26153.85377134  .00011819  00000+0  44040-3 0  9995
2 57180  97.5087 217.1974 0012792 145.4346 214.7727 15.27532169162109
MONITOR-4 (RS57S)       
1 57182U 23091S   26153.83368516  .00011335  00000+0  42129-3 0  9998
2 57182  97.5081 217.1475 0012748 145.7282 214.4782 15.27629248162107
MONITOR-2 (RS39S)       
1 57184U 23091U   26153.81874135  .00005222  00000+0  25411-3 0  9990
2 57184  97.5077 212.1955 0011976 155.8224 204.3574 15.18766966161770
SVYATOBOR 1 (RS60S)     
1 57187U 23091X   26153.83461118  .00009359  00000+0  36230-3 0  9994
2 57187  97.5093 217.5745 0010677 137.6232 222.5833 15.26353624162123
VIZARD-METEO (RS38S)    
1 57189U 23091Z   26153.81351740  .00018223  00000+0  52875-3 0  9996
2 57189  97.5096 223.0157 0008756 120.1295 240.0817 15.35537115162483
POLYTECH-UNIVERSE 3 (R*)
1 57191U 23091AB  26153.84783404  .00005859  00000+0  28266-3 0  9996
2 57191  97.5050 211.7291 0015830 173.6514 186.4923 15.18965813161770
UTMN 2 (RS27S)          
1 57203U 23091AP  26153.82067939  .00013769  00000+0  45185-3 0  9994
2 57203  97.5092 220.8463 0009432 126.3125 233.8989 15.31675080162348
KUZGTU 1 (RS47S)        
1 57217U 23091AV  26153.83912406  .00012714  00000+0  44597-3 0  9993
2 57217  97.5068 218.1763 0012121 142.3399 217.8692 15.29506969162180
SONATE-2                
1 59112U 24043Q   26151.95414564  .00042877  00000+0  58322-3 0  9994
2 59112  97.5518 301.3715 0006170 252.6142 107.4438 15.57445778125368
MESAT1                  
1 60209U 24125G   26153.11915652  .00057569  00000+0  66925-3 0  9990
2 60209  97.2302  10.2754 0008177 265.4838  94.5486 15.61519218107216
OOV-CUBE (TUBSAT-30)    
1 60240U 24128F   26153.81583073  .00003167  00000+0  24631-3 0  9996
2 60240  61.9959 275.6821 0046412 130.5699 229.9446 15.02702624103957
COLIBRI-S (RS67S)       
1 61746U 24199M   26153.83530575  .00021470  00000+0  42475-3 0  9990
2 61746  97.3008  27.5641 0007368 344.4544  15.6479 15.47091830135199
HORS 3 (RS81S)          
1 61753U 24199U   26153.79867242  .00037786  00000+0  58533-3 0  9996
2 61753  97.2995  29.3627 0005260 355.3672   4.7533 15.53930583135326
HORS 4 (RS82S)          
1 61754U 24199V   26153.80107495  .00047965  00000+0  63210-3 0  9994
2 61754  97.2941  30.4776 0003990 349.6754  10.4420 15.58282305135406
ARCTICSAT 1 (RS74S)     
1 61762U 24199AD  26153.54240661  .00556769  13619-3  11765-2 0  9995
2 61762  97.2868  36.5671 0004952 193.4086 166.7061 15.98809974135773
SIT-2086                
1 61764U 24199AF  26153.82388877  .00037183  00000+0  61648-3 0  9996
2 61764  97.2954  29.9147 0005158 329.6288  30.4665 15.52042599132205
HYPERVIEW 1G (RS66S)    
1 61772U 24199AP  26153.75800012  .00126214  00000+0  95119-3 0  9991
2 61772  97.2896  32.7870 0002558 340.0558  20.0605 15.72119355132400
ALTAIR (RS65S)          
1 61779U 24199AW  26153.85313139  .00009993  00000+0  28009-3 0  9996
2 61779  97.3042  23.3006 0012721   6.4968 353.6439 15.36717064134918
ASRTU-1 (AO-123)        
1 61781U 24199AY  26153.82879556  .00008139  00000+0  23788-3 0  9996
2 61781  97.3013  22.6301 0013911   8.1361 352.0106 15.35453922131726
SAMSAT-IONOSPHERE (RS7*)
1 61784U 24199BB  26153.85599427  .00045586  00000+0  64602-3 0  9995
2 61784  97.2962  29.4187 0007152 347.8931  12.2150 15.56315800135334
RTU MIREA 1 (RS51S)     
1 61785U 24199BC  26153.84664587  .00053725  00000+0  67614-3 0  9995
2 61785  97.2952  30.1707 0006504 344.3991  15.7064 15.59466919132238
TEVEL2-4                
1 63213U 25052D   26153.24759932  .00019833  00000+0  60334-3 0  9999
2 63213  97.3927  49.6197 0004090 133.0862 227.0724 15.34050425 67822
TEVEL2-5                
1 63214U 25052E   26153.65787347  .00020334  00000+0  62137-3 0  9997
2 63214  97.3918  49.9824 0003943 132.0291 228.1288 15.33903531 67881
TEVEL2-6                
1 63215U 25052F   26153.66985800  .00020445  00000+0  62551-3 0  9996
2 63215  97.3920  49.9788 0003894 130.5582 229.6000 15.33864805 67883
TEVEL2-1                
1 63217U 25052H   26153.69393787  .00019888  00000+0  61840-3 0  9997
2 63217  97.3886  49.6443 0003899 141.0246 219.1278 15.33355434 67873
